SWARM A                 
1 39452U 13067B   26181.57472276  .00009823  00000+0  16735-3 0  9994
2 39452  87.3310  51.2666 0003197  97.2584 262.9041 15.51202703708328
SWARM C                 
1 39453U 13067C   26181.57462159  .00009846  00000+0  16776-3 0  9994
2 39453  87.3309  49.8474 0003187  97.0578 263.1046 15.51201522708288
BRITE-CA1 (TORONTO)     
1 40020U 14033L   26181.35487269  .00000937  00000+0  14834-3 0  9990
2 40020  97.9755 310.0412 0077486 234.1487 125.2508 14.72697519644156
OCO 2                   
1 40059U 14035A   26181.54600232  .00000395  00000+0  97585-4 0  9995
2 40059  98.2020 122.6358 0001491  82.5139 277.6229 14.57121814637994
BRITE-PL2 (HEWELIUSZ)   
1 40119U 14049B   26181.29417840  .00001504  00000+0  14407-3 0  9994
2 40119  97.9110 293.3961 0015182  68.3877 291.8959 14.94640537643406
MMS 1                   
1 40482U 15011A   26181.58334491 -.00000984  00000+0  00000+0 0  9991
2 40482  72.2491 348.6525 8314796 167.6112 225.4231  0.28355971  1381
MMS 2                   
1 40483U 15011B   26181.58334491 -.00000985  00000+0  00000+0 0  9993
2 40483  72.2507 348.6515 8317541 167.6116 225.4268  0.28353757  1384
MMS 3                   
1 40484U 15011C   26181.58334491 -.00000984  00000+0  00000+0 0  9993
2 40484  72.2527 348.6634 8315972 167.6219 225.3870  0.28355947  1380
MMS 4                   
1 40485U 15011D   26181.58334491 -.00000984  00000+0  00000+0 0  9994
2 40485  72.2489 348.6467 8315881 167.6317 225.3805  0.28355978  1382
ASTROSAT                
1 40930U 15052A   26181.07515928  .00001640  00000+0  11768-3 0  9990
2 40930   5.9975  62.5732 0008377 222.4622 137.4857 14.82528855581741
DAMPE                   
1 41173U 15078A   26181.56870462  .00001073  00000+0  38568-4 0  9997
2 41173  97.4552 187.1015 0013124  35.3354 324.8754 15.30818996586593
PISAT                   
1 41784U 16059B   26181.49459232  .00000954  00000+0  16974-3 0  9998
2 41784  97.8181 181.3756 0029516 160.1786 200.0575 14.69006080521699
HXMT (HUIYAN)           
1 42758U 17034A   26181.28970116  .00004058  00000+0  20168-3 0  9999
2 42758  43.0144 110.0773 0032532 229.9483 129.8511 15.18569123499656
FLYING LAPTOP           
1 42831U 17042G   26181.58335111  .00003365  00000+0  26545-3 0  9998
2 42831  97.4743 336.6049 0019963  78.7182 281.6285 15.01230102488463
ZHANGHENG 1-01 (CSES-1) 
1 43194U 18015C   26181.56072450  .00006831  00000+0  31025-3 0  9994
2 43194  97.6876 347.4853 0017616 216.9226 143.0797 15.20981085466678
SALSAT                  
1 46495U 20068K   26181.48833811  .00007517  00000+0  26165-3 0  9990
2 46495  97.8843 185.3641 0007929 251.0233 109.0147 15.29983096317397
IXPE                    
1 49954U 21121A   26181.58334491  .00011108  00000+0  60137-3 0  9993
2 49954   0.2288 216.1661 0007101 278.5103 354.7332 15.10371934  5636
SMILE                   
1 69123U 26109A   26158.38327019 -.00000041  00000+0 -36778-3 0  9994
2 69123  69.9787 209.3069 3310191 288.5544  45.7342  7.54049028  2480
