OBJECT_NAME,OBJECT_ID,EPOCH,MEAN_MOTION,ECCENTRICITY,INCLINATION,RA_OF_ASC_NODE,ARG_OF_PERICENTER,MEAN_ANOMALY,EPHEMERIS_TYPE,CLASSIFICATION_TYPE,NORAD_CAT_ID,ELEMENT_SET_NO,REV_AT_EPOCH,BSTAR,MEAN_MOTION_DOT,MEAN_MOTION_DDOT
SWARM A,2013-067B,2026-06-30T13:47:36.046464,15.51202703,.00031979,87.3310,51.2666,97.2584,262.9041,0,U,39452,999,70832,.16735259E-3,.9823E-4,0
SWARM C,2013-067C,2026-06-30T13:47:27.305376,15.51201522,.00031879,87.3309,49.8474,97.0578,263.1046,0,U,39453,999,70828,.16775521E-3,.9846E-4,0
BRITE-CA1 (TORONTO),2014-033L,2026-06-30T08:31:01.000416,14.72697519,.00774864,97.9755,310.0412,234.1487,125.2508,0,U,40020,999,64415,.1483446E-3,.937E-5,0
OCO 2,2014-035A,2026-06-30T13:06:14.600448,14.57121814,.00014912,98.2020,122.6358,82.5139,277.6229,0,U,40059,999,63799,.9758522E-4,.395E-5,0
BRITE-PL2 (HEWELIUSZ),2014-049B,2026-06-30T07:03:37.013760,14.94640537,.00151828,97.9110,293.3961,68.3877,291.8959,0,U,40119,999,64340,.14407238E-3,.1504E-4,0
MMS 1,2015-011A,2026-06-30T14:00:01.000224,0.28355971,.83147967,72.2491,348.6525,167.6112,225.4231,0,U,40482,999,138,0,-.984E-5,0
MMS 2,2015-011B,2026-06-30T14:00:01.000224,0.28353757,.83175418,72.2507,348.6515,167.6116,225.4268,0,U,40483,999,138,0,-.985E-5,0
MMS 3,2015-011C,2026-06-30T14:00:01.000224,0.28355947,.83159724,72.2527,348.6634,167.6219,225.3870,0,U,40484,999,138,0,-.984E-5,0
MMS 4,2015-011D,2026-06-30T14:00:01.000224,0.28355978,.83158813,72.2489,348.6467,167.6317,225.3805,0,U,40485,999,138,0,-.984E-5,0
ASTROSAT,2015-052A,2026-06-30T01:48:13.761792,14.82528855,.00083771,5.9975,62.5732,222.4622,137.4857,0,U,40930,999,58174,.11767867E-3,.164E-4,0
DAMPE,2015-078A,2026-06-30T13:38:56.079168,15.30818996,.00131245,97.4552,187.1015,35.3354,324.8754,0,U,41173,999,58659,.38568268E-4,.1073E-4,0
PISAT,2016-059B,2026-06-30T11:52:12.776448,14.69006080,.00295169,97.8181,181.3756,160.1786,200.0575,0,U,41784,999,52169,.16974387E-3,.954E-5,0
HXMT (HUIYAN),2017-034A,2026-06-30T06:57:10.180224,15.18569123,.00325325,43.0144,110.0773,229.9483,129.8511,0,U,42758,999,49965,.20167747E-3,.4058E-4,0
FLYING LAPTOP,2017-042G,2026-06-30T14:00:01.535904,15.01230102,.00199639,97.4743,336.6049,78.7182,281.6285,0,U,42831,999,48846,.26544827E-3,.3365E-4,0
ZHANGHENG 1-01 (CSES-1),2018-015C,2026-06-30T13:27:26.596800,15.20981085,.00176168,97.6876,347.4853,216.9226,143.0797,0,U,43194,999,46667,.31025385E-3,.6831E-4,0
SALSAT,2020-068K,2026-06-30T11:43:12.412704,15.29983096,.0007929,97.8843,185.3641,251.0233,109.0147,0,U,46495,999,31739,.26165469E-3,.7517E-4,0
IXPE,2021-121A,2026-06-30T14:00:01.000224,15.10371934,.00071012,0.2288,216.1661,278.5103,354.7332,0,U,49954,999,563,.60137091E-3,.11108E-3,0
SMILE,2026-109A,2026-06-07T09:11:54.544416,7.54049028,.3310191,69.9787,209.3069,288.5544,45.7342,0,U,69123,999,248,-.36778157E-3,-.41E-6,0
